[
    {
        "Altitude(m)": 610405.3428092262,
        "Argument of Periapsis(deg)": 0.0,
        "Eccentricity": 0.0,
        "Inclination(deg)": 60.0,
        "Latitude(deg)": 52.1113261367545,
        "Longitude(deg)": 132.47750616945814,
        "Mean Anomaly(deg)": 114.5455,
        "RAAN(deg)": 100.0,
        "Satellite Name": "Test1 447",
        "Satellite Number": 447,
        "Semi-Major Axis(m)": 6980739.136638005,
        "Time(s)": 0
    },
    {
        "Altitude(m)": 610321.9155112193,
        "Argument of Periapsis(deg)": 0.00010418945913296404,
        "Eccentricity": 0.0,
        "Inclination(deg)": 60.0,
        "Latitude(deg)": 51.74604018641329,
        "Longitude(deg)": 133.2463997615099,
        "Mean Anomaly(deg)": 115.16560614546184,
        "RAAN(deg)": 99.99957995086025,
        "Satellite Name": "Test1 447",
        "Satellite Number": 447,
        "Semi-Major Axis(m)": 6980739.136638005,
        "Time(s)": 10
    }
]